{"fetched_at":"2026-05-24T17:02:03Z","count":15159,"tles":[{"name":"COSMOS 2416 (RODNIK-S 1)","line1":"1 28908U 05048A   26144.23673262  .00000037  00000+0  16436-3 0  9994","line2":"2 28908  82.4676 322.9798 0007411 217.4576 316.0095 12.55600040935898","category":"Other"},{"name":"STARLINK-1199","line1":"1 45201U 20012Z   26143.97394196  .00034600  00000+0  10604-2 0  9996","line2":"2 45201  53.1574  33.5863 0002532 134.7226 225.3982 15.33490345346690","category":"Starlink"},{"name":"STARLINK-5606","line1":"1 55767U 23028AC  26144.09560095  .00002710  00000+0  23473-3 0  9997","line2":"2 55767  69.9998  34.5174 0002839 273.1884  86.8950 14.98347532177806","category":"Starlink"},{"name":"TIANZHOU-8","line1":"1 61983U 24211A   25190.23141180  .00013666  00000+0  18156-3 0  9999","line2":"2 61983  41.4643 246.8835 0013766 249.5819 110.3541 15.57848080237179","category":"Other"},{"name":"STARLINK-36748","line1":"1 67693U 26025A   26144.04396412  .00033838  00000+0  10445-2 0  9992","line2":"2 67693  97.2818 255.7097 0001644  81.4961 278.6468 15.33484731 17566","category":"Starlink"},{"name":"FENGYUN 1C DEB","line1":"1 31053U 99025BEX 26099.28643864  .00002778  00000+0  20310-2 0  9995","line2":"2 31053  98.8008 218.0640 0307480 140.2862 222.1247 13.76513723950937","category":"Weather"},{"name":"STARLINK-6100","line1":"1 57125U 23090AA  26143.87625000  .00000569  00000+0  30218-4 0  9995","line2":"2 57125  43.0030 198.6060 0002315 286.2550  73.8047 15.27575784161852","category":"Starlink"},{"name":"STARLINK-4305","line1":"1 53060U 22077T   26144.06094168  .00003742  00000+0  26331-3 0  9996","line2":"2 53060  97.4506 323.9691 0001410  43.2569 316.8769 15.05640152212245","category":"Starlink"},{"name":"STARLINK-32925","line1":"1 63091U 25037Q   26144.11168310  .00002562  00000+0  22237-3 0  9997","line2":"2 63091  70.0005 164.1239 0004313 265.9969  94.0697 14.98335531 69840","category":"Starlink"},{"name":"STARLINK-37344","line1":"1 68744U 26082S   26144.16668980 -.02557852  00000+0 -30676-1 0  9996","line2":"2 68744  97.2854   7.8135 0001661  91.2892 294.9749 15.64467985  6000","category":"Starlink"},{"name":"HULIANWANG DIGUI-89","line1":"1 65997U 25231C   26143.72349862 -.00000111  00000+0  27905-4 0  9996","line2":"2 65997  49.9968 263.4546 0000933 147.3745 212.7185 13.29327125 29630","category":"Other"},{"name":"FENGYUN 1C DEB","line1":"1 32142U 99025CSL 23177.65846577  .00019734  00000+0  50309-2 0  9997","line2":"2 32142  98.8706 321.7921 0019284 212.0766 147.9254 14.50479504838128","category":"Weather"},{"name":"STARLINK-2631","line1":"1 48366U 21038P   23362.37687044  .00001826  00000+0  14145-3 0  9990","line2":"2 48366  53.0550 353.3409 0001432  92.3236 267.7917 15.06407241146829","category":"Starlink"},{"name":"STARLINK-30476","line1":"1 57930U 23147T   26144.16668980  .00189136  00000+0  13072-2 0  9994","line2":"2 57930  42.9929 192.5710 0017003 214.3694  44.8536 15.73005758  5844","category":"Starlink"},{"name":"GALAXY 3 (G-3)","line1":"1 15308U 84101A   26104.97120906 -.00000330  00000+0  00000+0 0  9993","line2":"2 15308  14.1347 345.5739 0006393  27.2772 321.2774  0.99845654 45840","category":"Other"},{"name":"IRIDIUM 109","line1":"1 41919U 17003C   26144.15854493  .00000014  00000+0 -21716-5 0  9998","line2":"2 41919  86.3952  98.5601 0002232  86.0467 274.0984 14.34217537489752","category":"Other"},{"name":"STARLINK-4468","line1":"1 53969U 22125F   26143.68326694 -.00000032  00000+0  16097-4 0  9996","line2":"2 53969  53.2169 247.4571 0001219  93.0503 267.0629 15.08838054200649","category":"Starlink"},{"name":"STARLINK-33896","line1":"1 63861U 25093AB  26143.96992777  .00016242  00000+0  59812-3 0  9997","line2":"2 63861  43.0045  12.8836 0001878 263.6402  96.4235 15.27597577 59263","category":"Starlink"},{"name":"UNKNOWN","line1":"1 82737U          23360.10827617  .00043609  00000+0  37296-1 0  9992","line2":"2 82737 102.9134 322.9294 0292627 288.2012  68.7472 13.68933876448689","category":"Other"},{"name":"COSMOS 2251 DEB","line1":"1 35459U 93036ALD 26104.33438794  .00000368  00000+0  13156-3 0  9996","line2":"2 35459  73.8712 319.3827 0017500 240.1001 119.8414 14.37690940601233","category":"Other"},{"name":"STARLINK-3357","line1":"1 51150U 22005AY  26144.17495918 -.00000445  00000+0 -98929-5 0  9998","line2":"2 51150  53.2159 319.8682 0001287 100.7914 259.3223 15.08838660240148","category":"Starlink"},{"name":"STARLINK-31435","line1":"1 59004U 24036G   26144.10771620 -.00000809  00000+0 -15188-4 0  9999","line2":"2 59004  53.1598  87.5647 0001308  81.7987 278.3162 15.30191800126882","category":"Starlink"},{"name":"HYPERFIELD-1A","line1":"1 60562U 24149CY  26144.16131133  .00005395  00000+0  18438-3 0  9993","line2":"2 60562  97.3797 224.4503 0006138  50.0386 310.1393 15.30689904 98364","category":"Other"},{"name":"PELICAN-6","line1":"1 66703U 25276AP  26144.12494169  .00003921  00000+0  14134-3 0  9997","line2":"2 66703  97.4136 219.3564 0000636  34.5527 325.5755 15.29141561 26853","category":"Other"},{"name":"FENGYUN 1C DEB","line1":"1 29734U 99025Y   26104.04005947  .00002134  00000+0  34718-2 0  9996","line2":"2 29734  99.1713  18.9686 0612814  90.9660 293.3551 12.91714704901270","category":"Weather"},{"name":"STARLINK-1280","line1":"1 45388U 20019AE  26144.12390200  .00067551  00000+0  43898-3 0  9992","line2":"2 45388  53.0380 109.1694 0005699  56.0020 304.1540 15.75340476342199","category":"Starlink"},{"name":"ONEWEB-0720","line1":"1 55835U 23029AR  26144.16541664  .00000071  00000+0  14473-3 0  9991","line2":"2 55835  87.9149 309.7669 0001574  87.0590 273.0723 13.19726064155679","category":"Other"},{"name":"STARLINK-32599","line1":"1 62048U 24216S   26144.16094328  .00010730  00000+0  39882-3 0  9998","line2":"2 62048  42.9986 197.3924 0001464 269.4844  90.5840 15.27582967 85334","category":"Starlink"},{"name":"JAM-E JAM 1","line1":"1 67757U 26028B   26144.16459345  .00000150  00000+0  00000+0 0  9998","line2":"2 67757   0.3110 296.2983 0000880 238.4086 160.3583  1.00279327   888","category":"Other"},{"name":"FENGYUN 1C DEB","line1":"1 31165U 99025BHT 26104.37919250  .00003409  00000+0  51974-3 0  9994","line2":"2 31165  98.8660 180.3258 0067385 211.4239 219.8523 14.73140696  5492","category":"Weather"},{"name":"FLOCK 4S-36","line1":"1 47530U 21006DW  23362.15547867  .00026018  00000+0  70197-3 0  9990","line2":"2 47530  97.3658  60.8566 0006234 115.8283 244.3605 15.37749162163394","category":"Other"},{"name":"STARLINK-34373","line1":"1 64944U 25158N   26144.12341764  .00001112  00000+0  81100-4 0  9991","line2":"2 64944  97.4534   8.0390 0002345  84.6763 275.4731 15.05663387 46709","category":"Starlink"},{"name":"GLOBALSTAR M094","line1":"1 39074U 13005C   26144.22244846 -.00000108  00000+0 -25322-4 0  9999","line2":"2 39074  51.9951 223.7655 0000228 168.4898 191.5974 12.62268117615443","category":"Other"},{"name":"STARLINK-4111","line1":"1 53159U 22083AD  26143.82494834 -.00000453  00000+0 -10407-4 0  9995","line2":"2 53159  53.2172 186.8237 0001239  79.1424 280.9708 15.08837244212700","category":"Starlink"},{"name":"STARLINK-11160 [DTC]","line1":"1 60125U 24118N   26143.68228404 -.00000459  00000+0  10732-5 0  9996","line2":"2 60125  53.1592 211.4328 0001106  73.8771 286.2368 15.69719442109770","category":"Starlink"},{"name":"TJS-15","line1":"1 63157U 25045A   26143.74878720 -.00000271  00000+0  00000+0 0  9996","line2":"2 63157   0.2823  84.9319 0005698 294.2169 226.1647  1.00273749  4515","category":"Other"},{"name":"STARLINK-37446","line1":"1 68808U 26089G   26144.10076493  .00146094  00000+0  96355-3 0  9996","line2":"2 68808  97.2848 350.6880 0002946  65.3970 294.7602 15.75190012  4905","category":"Starlink"},{"name":"STARLINK-35566","line1":"1 66061U 25235D   26143.73158487  .00019020  00000+0  65277-3 0  9996","line2":"2 66061  53.1586 256.5005 0001075  83.3446 276.7677 15.30194960 34415","category":"Starlink"},{"name":"FENGYUN 1C DEB","line1":"1 32245U 99025CWT 26103.31024149  .00003504  00000+0  44402-3 0  9995","line2":"2 32245  98.6498 313.4246 0091873 316.4884  42.9102 14.79569447679025","category":"Weather"},{"name":"STARLINK-2702","line1":"1 48441U 21040P   26143.53764176  .00001826  00000+0  70586-4 0  9999","line2":"2 48441  53.1585 190.0976 0001103  85.6318 274.4809 15.31703021278147","category":"Starlink"},{"name":"STARLINK-30523","line1":"1 57997U 23153G   26143.99821022  .00004967  00000+0  18995-3 0  9990","line2":"2 57997  43.0049   1.7725 0001382 296.2563  63.8146 15.27574018146412","category":"Starlink"},{"name":"GORIZONT 13 [-]","line1":"1 17083U 86090A   23179.10049311 -.00000108  00000+0  00000+0 0  9991","line2":"2 17083  13.7300 336.0073 0011826 349.7820   9.0290  0.96726750108177","category":"Other"},{"name":"LEMUR-2-LUCYBRYCE","line1":"1 42773U 17036J   23264.05391204  .09970726  23522-5  15831-2 0  9990","line2":"2 42773  97.1029 304.9695 0009077 251.6388 108.3922 16.33740479348054","category":"Other"},{"name":"STARLINK-5176","line1":"1 54053U 22136C   26143.95560986  .00000091  00000+0  23813-4 0  9995","line2":"2 54053  53.2162   6.4445 0001288 103.0796 257.0340 15.08840630198202","category":"Starlink"},{"name":"CZ-3C R/B","line1":"1 63925U 25097B   25161.67014857  .00168795 -35758-6  25402-3 0  9998","line2":"2 63925  28.6199 128.9766 7220524 197.3863 110.8885  2.42761279   685","category":"Other"},{"name":"UNKNOWN","line1":"1 85217U          26102.97605404  .00001611  00000+0  42724-3 0  9999","line2":"2 85217  98.0216 194.4510 0207669 121.7608 240.3999 14.37896104645273","category":"Other"},{"name":"COSMOS 2251 DEB","line1":"1 35669U 93036APL 26103.27093544  .00000559  00000+0  49807-3 0  9995","line2":"2 35669  73.8604 321.0813 0385678  51.9167 311.6072 13.57469973624380","category":"Other"},{"name":"STARLINK-3526","line1":"1 51720U 22016G   26143.96712154 -.00000183  00000+0  66157-5 0  9999","line2":"2 51720  53.2161 351.1575 0001387  90.4429 269.6722 15.08840288234781","category":"Starlink"}]}